NORAD_CAT_ID,OBJECT_NAME,OBJECT_TYPE,EPOCH,MEAN_MOTION,ECCENTRICITY,INCLINATION,RA_OF_ASC_NODE,ARG_OF_PERICENTER,MEAN_ANOMALY,BSTAR,MEAN_MOTION_DOT,MEAN_MOTION_DDOT,TLE_LINE0,TLE_LINE1,TLE_LINE2,SEMIMAJOR_AXIS,PERIOD,APOGEE,PERIGEE,DECAYED
55410.0,STARLINK-5633,PAYLOAD,2023-12-17 09:38:45,14.98329868,0.0002727,69.9997,334.8803,263.7911,96.2937,-6.5125e-06,-1.71e-06,0.0,0 STARLINK-5633,1 55410U 23014V   23351.40192088 -.00000171  00000-0 -65125-5 0  9996,2 55410  69.9997 334.8803 0002727 263.7911  96.2937 14.98329868 49740,6950.193,96.107,573.954,570.163,0.0
55410.0,STARLINK-5633,PAYLOAD,2023-12-18 03:16:14,14.98335024,0.0002882,69.9994,333.0284,267.506,92.5769,7.5909e-05,8.13e-06,0.0,0 STARLINK-5633,1 55410U 23014V   23352.13627378  .00000813  00000-0  75909-4 0  9993,2 55410  69.9994 333.0284 0002882 267.5060  92.5769 14.98335024 49855,6950.177,96.107,574.045,570.039,0.0
55410.0,STARLINK-5633,PAYLOAD,2023-12-18 08:04:37,14.9833841,0.0002805,69.9995,332.5233,264.4019,95.682,0.00011409,1.269e-05,0.0,0 STARLINK-5633,1 55410U 23014V   23352.33654952  .00001269  00000-0  11409-3 0  9993,2 55410  69.9995 332.5233 0002805 264.4019  95.6820 14.98338410 49886,6950.167,96.106,573.981,570.082,0.0
55410.0,STARLINK-5633,PAYLOAD,2023-12-19 03:18:15,14.98323422,0.0002552,70.0011,330.506,244.0482,116.0414,-4.0721e-05,-5.79e-06,0.0,0 STARLINK-5633,1 55410U 23014V   23353.13768391 -.00000579  00000-0 -40721-4 0  9990,2 55410  70.0011 330.5060 0002552 244.0482 116.0414 14.98323422 50001,6950.213,96.107,573.852,570.305,0.0
55410.0,STARLINK-5633,PAYLOAD,2023-12-19 08:06:40,14.98322709,0.0002948,69.9995,329.9987,262.8651,97.2173,-7.6219e-05,-1.002e-05,0.0,0 STARLINK-5633,1 55410U 23014V   23353.33796609 -.00001002  00000-0 -76219-4 0  9998,2 55410  69.9995 329.9987 0002948 262.8651  97.2173 14.98322709 50036,6950.215,96.107,574.129,570.032,0.0
55410.0,STARLINK-5633,PAYLOAD,2023-12-20 03:20:16,14.9833625,0.0003256,69.9991,327.9781,272.3862,87.6925,-0.00017147,-2.139e-05,0.0,0 STARLINK-5633,1 55410U 23014V   23354.13908212 -.00002139  00000-0 -17147-3 0  9998,2 55410  69.9991 327.9781 0003256 272.3862  87.6925 14.98336250 50152,6950.174,96.107,574.302,569.776,0.0
55410.0,STARLINK-5633,PAYLOAD,2023-12-20 08:08:40,14.98335066,0.0002862,69.9998,327.4738,261.3607,98.7228,-8.8375e-06,-1.98e-06,0.0,0 STARLINK-5633,1 55410U 23014V   23354.33935751 -.00000198  00000-0 -88375-5 0  9994,2 55410  69.9998 327.4738 0002862 261.3607  98.7228 14.98335066 50189,6950.177,96.107,574.031,570.053,0.0
55410.0,STARLINK-5633,PAYLOAD,2023-12-20 22:33:52,14.98329841,0.0002952,69.9998,325.9587,262.4299,97.6525,0.00014533,1.641e-05,0.0,0 STARLINK-5633,1 55410U 23014V   23354.94019558  .00001641  00000-0  14533-3 0  9994,2 55410  69.9998 325.9587 0002952 262.4299  97.6525 14.98329841 50275,6950.193,96.107,574.11,570.007,0.0
55410.0,STARLINK-5633,PAYLOAD,2023-12-21 03:22:16,14.98331201,0.0002927,69.9999,325.4537,261.7454,98.3373,0.00015424,1.748e-05,0.0,0 STARLINK-5633,1 55410U 23014V   23355.14047438  .00001748  00000-0  15424-3 0  9993,2 55410  69.9999 325.4537 0002927 261.7454  98.3373 14.98331201 50309,6950.189,96.107,574.088,570.02,0.0
55410.0,STARLINK-5633,PAYLOAD,2023-12-21 08:10:40,14.98334752,0.0002858,70.0,324.949,259.4603,100.6234,0.00018778,2.149e-05,0.0,0 STARLINK-5633,1 55410U 23014V   23355.34075071  .00002149  00000-0  18778-3 0  9990,2 55410  70.0000 324.9490 0002858 259.4603 100.6234 14.98334752 50330,6950.178,96.107,574.03,570.057,0.0
55410.0,STARLINK-5633,PAYLOAD,2023-12-21 22:35:54,14.98330177,0.0002433,70.0017,323.4361,239.9724,120.1194,-8.834e-06,-1.98e-06,0.0,0 STARLINK-5633,1 55410U 23014V   23355.94159914 -.00000198  00000-0 -88340-5 0  9993,2 55410  70.0017 323.4361 0002433 239.9724 120.1194 14.98330177 50424,6950.192,96.107,573.748,570.366,0.0
55410.0,STARLINK-5633,PAYLOAD,2023-12-22 03:24:18,14.98318686,0.0002662,70.0016,322.9333,221.7401,138.3555,0.00016773,1.908e-05,0.0,0 STARLINK-5633,1 55410U 23014V   23356.14188073  .00001908  00000-0  16773-3 0  9991,2 55410  70.0016 322.9333 0002662 221.7401 138.3555 14.98318686 50457,6950.228,96.108,573.943,570.243,0.0
55410.0,STARLINK-5633,PAYLOAD,2023-12-22 08:12:42,14.9832936,0.0002538,70.0012,322.4262,241.5407,118.5496,-5.8204e-05,-7.87e-06,0.0,0 STARLINK-5633,1 55410U 23014V   23356.34216107 -.00000787  00000-0 -58204-4 0  9995,2 55410  70.0012 322.4262 0002538 241.5407 118.5496 14.98329360 50485,6950.195,96.107,573.824,570.296,0.0
55410.0,STARLINK-5633,PAYLOAD,2023-12-22 22:37:55,14.98332581,0.0002586,70.0002,320.9096,255.1089,104.9784,-8.0626e-05,-1.055e-05,0.0,0 STARLINK-5633,1 55410U 23014V   23356.94299888 -.00001055  00000-0 -80626-4 0  9990,2 55410  70.0002 320.9096 0002586 255.1089 104.9784 14.98332581 50570,6950.185,96.107,573.847,570.253,0.0
55410.0,STARLINK-5633,PAYLOAD,2023-12-23 03:26:19,14.98333035,0.0002497,70.0004,320.4041,262.7989,97.2886,-7.635e-05,-1.004e-05,0.0,0 STARLINK-5633,1 55410U 23014V   23357.14327875 -.00001004  00000-0 -76350-4 0  9994,2 55410  70.0004 320.4041 0002497 262.7989  97.2886 14.98333035 50607,6950.184,96.107,573.784,570.313,0.0
55410.0,STARLINK-5633,PAYLOAD,2023-12-23 08:14:43,14.98326862,0.00028,69.9999,319.8964,270.6222,89.4616,0.00016716,1.902e-05,0.0,0 STARLINK-5633,1 55410U 23014V   23357.34355574  .00001902  00000-0  16716-3 0  9997,2 55410  69.9999 319.8964 0002800 270.6222  89.4616 14.98326862 50636,6950.203,96.107,574.014,570.122,0.0
55410.0,STARLINK-5633,PAYLOAD,2023-12-23 22:39:55,14.98315983,0.0002471,70.0006,318.3811,258.6691,101.419,0.00022655,2.61e-05,0.0,0 STARLINK-5633,1 55410U 23014V   23357.94439796  .00002610  00000-0  22655-3 0  9998,2 55410  70.0006 318.3811 0002471 258.6691 101.4190 14.98315983 50727,6950.236,96.108,573.819,570.384,0.0
55410.0,STARLINK-5633,PAYLOAD,2023-12-24 03:28:19,14.9833252,0.0002608,69.9996,317.8771,264.1729,95.9133,0.00010852,1.202e-05,0.0,0 STARLINK-5633,1 55410U 23014V   23358.14467321  .00001202  00000-0  10852-3 0  9998,2 55410  69.9996 317.8771 0002608 264.1729  95.9133 14.98332520 50750,6950.185,96.107,573.863,570.237,0.0
55410.0,STARLINK-5633,PAYLOAD,2023-12-24 08:16:44,14.98328815,0.0002388,70.0002,317.3719,256.2946,103.7947,9.1876e-05,1.003e-05,0.0,0 STARLINK-5633,1 55410U 23014V   23358.34495539  .00001003  00000-0  91876-4 0  9997,2 55410  70.0002 317.3719 0002388 256.2946 103.7947 14.98328815 50782,6950.197,96.107,573.721,570.402,0.0
55410.0,STARLINK-5633,PAYLOAD,2023-12-24 22:41:57,14.9832689,0.000228,70.0006,315.8584,244.5251,115.5673,-1.4404e-05,-2.65e-06,0.0,0 STARLINK-5633,1 55410U 23014V   23358.94579962 -.00000265  00000-0 -14404-4 0  9999,2 55410  70.0006 315.8584 0002280 244.5251 115.5673 14.98326890 50877,6950.203,96.107,573.652,570.483,0.0
55410.0,STARLINK-5633,PAYLOAD,2023-12-25 03:30:21,14.98319561,0.0002346,70.0,315.3523,262.2852,97.8041,-4.2116e-05,-5.95e-06,0.0,0 STARLINK-5633,1 55410U 23014V   23359.14608645 -.00000595  00000-0 -42116-4 0  9990,2 55410  70.0000 315.3523 0002346 262.2852  97.8041 14.98319561 50908,6950.225,96.108,573.721,570.46,0.0
55410.0,STARLINK-5633,PAYLOAD,2023-12-25 06:42:37,14.98317991,0.0002495,70.0002,315.015,271.3284,88.7589,0.00024203,2.795e-05,0.0,0 STARLINK-5633,1 55410U 23014V   23359.27960089  .00002795  00000-0  24203-3 0  9995,2 55410  70.0002 315.0150 0002495 271.3284  88.7589 14.98317991 50921,6950.23,96.108,573.829,570.361,0.0
55410.0,STARLINK-5633,PAYLOAD,2023-12-25 22:43:58,14.98328337,0.0002656,70.0004,313.3347,255.3732,104.7132,-2.231e-05,-3.59e-06,0.0,0 STARLINK-5633,1 55410U 23014V   23359.94720014 -.00000359  00000-0 -22310-4 0  9995,2 55410  70.0004 313.3347 0002656 255.3732 104.7132 14.98328337 51022,6950.198,96.107,573.909,570.217,0.0
55410.0,STARLINK-5633,PAYLOAD,2023-12-26 03:32:22,14.98331114,0.0002485,70.0009,312.8309,239.0378,121.0537,-1.0291e-06,-1.05e-06,0.0,0 STARLINK-5633,1 55410U 23014V   23360.14747746 -.00000105  00000-0 -10291-5 0  9995,2 55410  70.0009 312.8309 0002485 239.0378 121.0537 14.98331114 51055,6950.189,96.107,573.782,570.327,0.0
55410.0,STARLINK-5633,PAYLOAD,2023-12-26 06:44:38,14.9833089,0.0002551,70.0007,312.4934,252.5272,107.5608,4.0116e-05,3.86e-06,0.0,0 STARLINK-5633,1 55410U 23014V   23360.28099664  .00000386  00000-0  40116-4 0  9996,2 55410  70.0007 312.4934 0002551 252.5272 107.5608 14.98330890 51070,6950.19,96.107,573.828,570.282,0.0
55410.0,STARLINK-5633,PAYLOAD,2023-12-26 22:45:58,14.98329509,0.0002473,70.0004,310.8097,252.5439,107.545,5.38e-05,5.49e-06,0.0,0 STARLINK-5633,1 55410U 23014V   23360.94859679  .00000549  00000-0  53800-4 0  9994,2 55410  70.0004 310.8097 0002473 252.5439 107.5450 14.98329509 51178,6950.194,96.107,573.778,570.341,0.0
55410.0,STARLINK-5633,PAYLOAD,2023-12-27 03:34:22,14.98329586,0.0002466,70.0004,310.3048,251.8266,108.2625,5.2351e-05,5.32e-06,0.0,0 STARLINK-5633,1 55410U 23014V   23361.14887678  .00000532  00000-0  52351-4 0  9999,2 55410  70.0004 310.3048 0002466 251.8266 108.2625 14.98329586 51202,6950.194,96.107,573.773,570.345,0.0
55410.0,STARLINK-5633,PAYLOAD,2023-12-27 06:46:39,14.98328096,0.0002411,70.0005,309.968,250.956,109.1338,7.3559e-05,7.85e-06,0.0,0 STARLINK-5633,1 55410U 23014V   23361.28239742  .00000785  00000-0  73559-4 0  9990,2 55410  70.0005 309.9680 0002411 250.9560 109.1338 14.98328096 51224,6950.199,96.107,573.739,570.388,0.0
55410.0,STARLINK-5633,PAYLOAD,2023-12-27 22:47:59,14.98331455,0.0002453,70.0002,308.2842,253.8522,106.2367,3.9991e-05,3.84e-06,0.0,0 STARLINK-5633,1 55410U 23014V   23361.94999517  .00000384  00000-0  39991-4 0  9993,2 55410  70.0002 308.2842 0002453 253.8522 106.2367 14.98331455 51323,6950.188,96.107,573.758,570.349,0.0
55410.0,STARLINK-5633,PAYLOAD,2023-12-28 03:36:23,14.98331942,0.0002403,70.0003,307.7795,254.8603,105.2291,1.7522e-05,1.16e-06,0.0,0 STARLINK-5633,1 55410U 23014V   23362.15027533  .00000116  00000-0  17522-4 0  9996,2 55410  70.0003 307.7795 0002403 254.8603 105.2291 14.98331942 51350,6950.187,96.107,573.722,570.382,0.0
